STARLINK-1559           
1 46077U 20055BC  26068.23360559  .00042685  00000+0  14779-2 0  9995
2 46077  53.0254  76.0659 0004229  33.9710 326.1559 15.29461733309518
STARLINK-35727          
1 66281U 25247S   26068.57891525  .00015616  00000+0  53868-3 0  9998
2 66281  53.1586 192.1730 0001461  32.0349 328.0740 15.30173698 21010
